GSAT0101 (PRN E11)      
1 37846U 11060A   23187.46520173 -.00000079  00000+0  00000+0 0  9990
2 37846  57.0998  10.9172 0003596  56.7994 303.2583  1.70475860 72899
GSAT0102 (PRN E12)      
1 37847U 11060B   23185.35648260 -.00000071  00000+0  00000+0 0  9997
2 37847  57.1002  10.9742 0002916  20.7003 171.5972  1.70475248 72851
GSAT0103 (PRN E19)      
1 38857U 12055A   23184.57112037  .00000018  00000+0  00000+0 0  9995
2 38857  55.2629 131.2193 0004962 274.3962  85.4960  1.70473565 66749
GSAT0104 (PRN E20)      
1 38858U 12055B   23185.71384453  .00000016  00000+0  00000+0 0  9994
2 38858  55.2632 131.1894 0002388 279.1740  80.7514  1.70473808 66730
GSAT0201 (PRN E18)      
1 40128U 14050A   23186.43654050 -.00000080  00000+0  00000+0 0  9999
2 40128  49.9910 317.0024 1611329 138.0486 235.5158  1.85518933 60265
GSAT0202 (PRN E14)      
1 40129U 14050B   23185.07916347 -.00000077  00000+0  00000+0 0  9995
2 40129  50.0123 316.1268 1609079 138.8086 234.5524  1.85519557 60436
GSAT0203 (PRN E26)      
1 40544U 15017A   23185.48501085 -.00000072  00000+0  00000+0 0  9999
2 40544  56.8950  10.9523 0001049 232.1894 127.8309  1.70475840 51478
GSAT0204 (PRN E22)      
1 40545U 15017B   23184.56531908 -.00000069  00000+0  00000+0 0  9991
2 40545  56.9006  10.9911 0001502 188.8078 171.2231  1.70475459 51460
GSAT0205 (PRN E24)      
1 40889U 15045A   23187.26621505  .00000025  00000+0  00000+0 0  9997
2 40889  55.3921 251.3582 0003024   8.1514 351.9460  1.70473800 48651
GSAT0206 (PRN E30)      
1 40890U 15045B   23186.90032994  .00000028  00000+0  00000+0 0  9990
2 40890  55.3918 251.3640 0001651 333.7812  26.3049  1.70473608 48670
GSAT0209 (PRN E09)      
1 41174U 15079A   23186.48524585  .00000016  00000+0  00000+0 0  9995
2 41174  55.2811 130.8732 0004834 312.6174  47.2983  1.70473902 46981
GSAT0208 (PRN E08)      
1 41175U 15079B   23186.70483005  .00000016  00000+0  00000+0 0  9992
2 41175  55.2794 130.8652 0004168 310.9635  48.9580  1.70473905 46980
GSAT0211 (PRN E02)      
1 41549U 16030A   23185.65284617  .00000038  00000+0  00000+0 0  9990
2 41549  55.5393 251.3721 0003044 309.6835  50.3891  1.70473908 44262
GSAT0210 (PRN E01)      
1 41550U 16030B   23185.94439589  .00000036  00000+0  00000+0 0  9992
2 41550  55.5386 251.3654 0004542 268.3806  91.6661  1.70473922 44263
GSAT0207 (PRN E07)      
1 41859U 16069A   23186.19254906  .00000015  00000+0  00000+0 0  9999
2 41859  54.9434 130.9681 0005072 299.6873  60.2169  1.70473811 41241
GSAT0212 (PRN E03)      
1 41860U 16069B   23186.04727501  .00000015  00000+0  00000+0 0  9991
2 41860  54.9413 130.9691 0003848 320.3391  39.5867  1.70474135 41274
GSAT0213 (PRN E04)      
1 41861U 16069C   23185.23969700  .00000016  00000+0  00000+0 0  9992
2 41861  54.9430 130.9973 0004946 280.9924  78.9027  1.70472774 41250
GSAT0214 (PRN E05)      
1 41862U 16069D   23185.97347266  .00000015  00000+0  00000+0 0  9990
2 41862  54.9415 130.9710 0003977 286.2127  73.6972  1.70472614 41265
GSAT0215 (PRN E21)      
1 43055U 17079A   23186.46304799  .00000032  00000+0  00000+0 0  9996
2 43055  55.5151 251.1766 0003010 260.2307  99.8321  1.70474519 34617
GSAT0216 (PRN E25)      
1 43056U 17079B   23183.23551985  .00000043  00000+0  00000+0 0  9992
2 43056  55.5173 251.2656 0004444 268.9883  91.0575  1.70474743 34554
GSAT0217 (PRN E27)      
1 43057U 17079C   23185.80218597  .00000037  00000+0  00000+0 0  9990
2 43057  55.5139 251.1939 0003663 282.3311  77.7271  1.70474669 34605
GSAT0218 (PRN E31)      
1 43058U 17079D   23184.84907281  .00000042  00000+0  00000+0 0  9995
2 43058  55.5144 251.2177 0004956 266.6764  93.3674  1.70474566 34584
GSAT0221 (PRN E15)      
1 43564U 18060A   23187.09484357 -.00000078  00000+0  00000+0 0  9992
2 43564  57.2761  10.8212 0001448 295.3448  64.6642  1.70475672 30817
GSAT0222 (PRN E33)      
1 43565U 18060B   23184.96843627 -.00000069  00000+0  00000+0 0  9995
2 43565  57.2775  10.8796 0001303 324.7598  35.2634  1.70475606 30815
GSAT0219 (PRN E36)      
1 43566U 18060C   23186.36209445 -.00000075  00000+0  00000+0 0  9993
2 43566  57.2785  10.8441 0001025 336.6764  23.3453  1.70475666 30815
GSAT0220 (PRN E13)      
1 43567U 18060D   23185.40930740 -.00000071  00000+0  00000+0 0  9993
2 43567  57.2779  10.8702 0000994 323.0978  36.9253  1.70475329 30779
GSAT0223 (PRN E34)      
1 49809U 21116A   23187.31521728 -.00000078  00000+0  00000+0 0  9995
2 49809  57.2697  10.7148 0002422 137.4557  42.5048  1.70475445  9819
GSAT0224 (PRN E10)      
1 49810U 21116B   23183.85441995 -.00000065  00000+0  00000+0 0  9995
2 49810  57.2703  10.8069 0002484 121.7718 206.7038  1.70475549  9789
